{
  "links" : {
    "next" : "https://api.nasa.gov/neo/rest/v1/feed?start_date=2000-12-16&end_date=2000-12-16&detailed=true&api_key=t0TVs3DtDT2H8Oy2Zy8m2eVrNsAVKAexjcZXUckd",
    "prev" : "https://api.nasa.gov/neo/rest/v1/feed?start_date=2000-12-14&end_date=2000-12-14&detailed=true&api_key=t0TVs3DtDT2H8Oy2Zy8m2eVrNsAVKAexjcZXUckd",
    "self" : "https://api.nasa.gov/neo/rest/v1/feed?start_date=2000-12-15&end_date=2000-12-15&detailed=true&api_key=t0TVs3DtDT2H8Oy2Zy8m2eVrNsAVKAexjcZXUckd"
  },
  "element_count" : 4,
  "near_earth_objects" : {
    "2000-12-15" : [ {
      "links" : {
        "self" : "https://api.nasa.gov/neo/rest/v1/neo/2005604?api_key=t0TVs3DtDT2H8Oy2Zy8m2eVrNsAVKAexjcZXUckd"
      },
      "neo_reference_id" : "2005604",
      "name" : "5604 (1992 FE)",
      "nasa_jpl_url" : "http://ssd.jpl.nasa.gov/sbdb.cgi?sstr=2005604",
      "absolute_magnitude_h" : 17.2,
      "estimated_diameter" : {
        "kilometers" : {
          "estimated_diameter_min" : 0.9650614696,
          "estimated_diameter_max" : 2.1579430484
        },
        "meters" : {
          "estimated_diameter_min" : 965.0614695789,
          "estimated_diameter_max" : 2157.9430484443
        },
        "miles" : {
          "estimated_diameter_min" : 0.5996612104,
          "estimated_diameter_max" : 1.34088323
        },
        "feet" : {
          "estimated_diameter_min" : 3166.2122718533,
          "estimated_diameter_max" : 7079.8658710581
        }
      },
      "is_potentially_hazardous_asteroid" : true,
      "close_approach_data" : [ {
        "close_approach_date" : "2000-12-15",
        "epoch_date_close_approach" : 976867200000,
        "relative_velocity" : {
          "kilometers_per_second" : "12.730781857",
          "kilometers_per_hour" : "45830.8146851521",
          "miles_per_hour" : "28477.4859358936"
        },
        "miss_distance" : {
          "astronomical" : "0.3758302839",
          "lunar" : "146.1979827881",
          "kilometers" : "56223412",
          "miles" : "34935608"
        },
        "orbiting_body" : "Earth"
      } ],
      "orbital_data" : {
        "orbit_id" : "146",
        "orbit_determination_date" : "2017-05-29 06:18:27",
        "orbit_uncertainty" : "0",
        "minimum_orbit_intersection" : ".0331798",
        "jupiter_tisserand_invariant" : "6.372",
        "epoch_osculation" : "2458000.5",
        "eccentricity" : ".4061499819246546",
        "semi_major_axis" : ".9287966941299322",
        "inclination" : "4.713586625633988",
        "ascending_node_longitude" : "311.9598155095754",
        "orbital_period" : "326.948552003355",
        "perihelion_distance" : ".5515659335973813",
        "perihelion_argument" : "82.5861756257242",
        "aphelion_distance" : "1.306027454662483",
        "perihelion_time" : "2458067.379766705882",
        "mean_anomaly" : "286.359312905382",
        "mean_motion" : "1.10109066944669",
        "equinox" : "J2000"
      }
    }, {
      "links" : {
        "self" : "https://api.nasa.gov/neo/rest/v1/neo/3081292?api_key=t0TVs3DtDT2H8Oy2Zy8m2eVrNsAVKAexjcZXUckd"
      },
      "neo_reference_id" : "3081292",
      "name" : "(2001 QE71)",
      "nasa_jpl_url" : "http://ssd.jpl.nasa.gov/sbdb.cgi?sstr=3081292",
      "absolute_magnitude_h" : 24.4,
      "estimated_diameter" : {
        "kilometers" : {
          "estimated_diameter_min" : 0.0350392641,
          "estimated_diameter_max" : 0.0783501764
        },
        "meters" : {
          "estimated_diameter_min" : 35.0392641108,
          "estimated_diameter_max" : 78.3501764334
        },
        "miles" : {
          "estimated_diameter_min" : 0.0217723826,
          "estimated_diameter_max" : 0.0486845275
        },
        "feet" : {
          "estimated_diameter_min" : 114.9582192654,
          "estimated_diameter_max" : 257.0543928497
        }
      },
      "is_potentially_hazardous_asteroid" : false,
      "close_approach_data" : [ {
        "close_approach_date" : "2000-12-15",
        "epoch_date_close_approach" : 976867200000,
        "relative_velocity" : {
          "kilometers_per_second" : "5.48684906",
          "kilometers_per_hour" : "19752.6566159267",
          "miles_per_hour" : "12273.5326622685"
        },
        "miss_distance" : {
          "astronomical" : "0.2500548818",
          "lunar" : "97.2713546753",
          "kilometers" : "37407680",
          "miles" : "23244054"
        },
        "orbiting_body" : "Earth"
      } ],
      "orbital_data" : {
        "orbit_id" : "16",
        "orbit_determination_date" : "2017-04-06 09:16:14",
        "orbit_uncertainty" : "6",
        "minimum_orbit_intersection" : ".00658783",
        "jupiter_tisserand_invariant" : "5.724",
        "epoch_osculation" : "2458000.5",
        "eccentricity" : ".1586537124826195",
        "semi_major_axis" : "1.078189538768366",
        "inclination" : "3.035105217971874",
        "ascending_node_longitude" : "148.4224509395292",
        "orbital_period" : "408.9225849508608",
        "perihelion_distance" : ".9071307656828419",
        "perihelion_argument" : "96.25627303863335",
        "aphelion_distance" : "1.249248311853891",
        "perihelion_time" : "2458200.197222468181",
        "mean_anomaly" : "184.194107309617",
        "mean_motion" : ".8803622329719458",
        "equinox" : "J2000"
      }
    }, {
      "links" : {
        "self" : "https://api.nasa.gov/neo/rest/v1/neo/3145519?api_key=t0TVs3DtDT2H8Oy2Zy8m2eVrNsAVKAexjcZXUckd"
      },
      "neo_reference_id" : "3145519",
      "name" : "(2003 AB23)",
      "nasa_jpl_url" : "http://ssd.jpl.nasa.gov/sbdb.cgi?sstr=3145519",
      "absolute_magnitude_h" : 19.9,
      "estimated_diameter" : {
        "kilometers" : {
          "estimated_diameter_min" : 0.2783267681,
          "estimated_diameter_max" : 0.6223575734
        },
        "meters" : {
          "estimated_diameter_min" : 278.3267680719,
          "estimated_diameter_max" : 622.3575733667
        },
        "miles" : {
          "estimated_diameter_min" : 0.1729441822,
          "estimated_diameter_max" : 0.3867149477
        },
        "feet" : {
          "estimated_diameter_min" : 913.1455937611,
          "estimated_diameter_max" : 2041.8556210042
        }
      },
      "is_potentially_hazardous_asteroid" : false,
      "close_approach_data" : [ {
        "close_approach_date" : "2000-12-15",
        "epoch_date_close_approach" : 976867200000,
        "relative_velocity" : {
          "kilometers_per_second" : "18.2569205792",
          "kilometers_per_hour" : "65724.9140849742",
          "miles_per_hour" : "40838.9056435219"
        },
        "miss_distance" : {
          "astronomical" : "0.3019293975",
          "lunar" : "117.4505310059",
          "kilometers" : "45167992",
          "miles" : "28066090"
        },
        "orbiting_body" : "Earth"
      } ],
      "orbital_data" : {
        "orbit_id" : "20",
        "orbit_determination_date" : "2017-04-06 09:14:26",
        "orbit_uncertainty" : "1",
        "minimum_orbit_intersection" : ".0816324",
        "jupiter_tisserand_invariant" : "4.310",
        "epoch_osculation" : "2458000.5",
        "eccentricity" : ".4235477219306421",
        "semi_major_axis" : "1.554937040519927",
        "inclination" : "13.37216383868912",
        "ascending_node_longitude" : "113.4092628816274",
        "orbital_period" : "708.2191088837585",
        "perihelion_distance" : ".8963469992621373",
        "perihelion_argument" : "257.700509431188",
        "aphelion_distance" : "2.213527081777716",
        "perihelion_time" : "2458221.163662799166",
        "mean_anomaly" : "247.8328505807963",
        "mean_motion" : ".50831726436668",
        "equinox" : "J2000"
      }
    }, {
      "links" : {
        "self" : "https://api.nasa.gov/neo/rest/v1/neo/3721137?api_key=t0TVs3DtDT2H8Oy2Zy8m2eVrNsAVKAexjcZXUckd"
      },
      "neo_reference_id" : "3721137",
      "name" : "(2015 LE21)",
      "nasa_jpl_url" : "http://ssd.jpl.nasa.gov/sbdb.cgi?sstr=3721137",
      "absolute_magnitude_h" : 24.8,
      "estimated_diameter" : {
        "kilometers" : {
          "estimated_diameter_min" : 0.0291443905,
          "estimated_diameter_max" : 0.0651688382
        },
        "meters" : {
          "estimated_diameter_min" : 29.1443904535,
          "estimated_diameter_max" : 65.1688382168
        },
        "miles" : {
          "estimated_diameter_min" : 0.018109479,
          "estimated_diameter_max" : 0.0404940262
        },
        "feet" : {
          "estimated_diameter_min" : 95.6180819754,
          "estimated_diameter_max" : 213.8085311752
        }
      },
      "is_potentially_hazardous_asteroid" : false,
      "close_approach_data" : [ {
        "close_approach_date" : "2000-12-15",
        "epoch_date_close_approach" : 976867200000,
        "relative_velocity" : {
          "kilometers_per_second" : "3.783965437",
          "kilometers_per_hour" : "13622.2755731183",
          "miles_per_hour" : "8464.3522859745"
        },
        "miss_distance" : {
          "astronomical" : "0.1159048093",
          "lunar" : "45.086971283",
          "kilometers" : "17339112",
          "miles" : "10774025"
        },
        "orbiting_body" : "Earth"
      } ],
      "orbital_data" : {
        "orbit_id" : "13",
        "orbit_determination_date" : "2017-04-06 08:33:10",
        "orbit_uncertainty" : "4",
        "minimum_orbit_intersection" : ".0233737",
        "jupiter_tisserand_invariant" : "5.632",
        "epoch_osculation" : "2458000.5",
        "eccentricity" : ".09893656953589972",
        "semi_major_axis" : "1.101966652915692",
        "inclination" : "6.636058870864352",
        "ascending_node_longitude" : "121.2863024920184",
        "orbital_period" : "422.5237303301345",
        "perihelion_distance" : ".992941852533256",
        "perihelion_argument" : "242.6649539328301",
        "aphelion_distance" : "1.210991453298128",
        "perihelion_time" : "2458139.851520492371",
        "mean_anomaly" : "241.2692784425234",
        "mean_motion" : ".8520231507913597",
        "equinox" : "J2000"
      }
    } ]
  }
}